{
  "type": "FeatureCollection",
  "features": [
    {
      "type": "Feature",
      "properties": {
        "norad_id": 34641,
        "name": "COSMOS 2251 DEB",
        "group": "cosmos-2251-debris",
        "lat": 26.903239711984106,
        "lon": -134.5956085064035,
        "alt_km": 730.9568827240046,
        "timestamp": "2025-12-27T07:26:25.615423+00:00",
        "meta_object_name": "COSMOS 2251 DEB",
        "meta_object_id": "1993-036XN",
        "meta_epoch": "2025-12-26T14:54:30.263040",
        "meta_mean_motion": 14.5208918,
        "meta_eccentricity": 0.0019151,
        "meta_inclination": 73.8391,
        "meta_ra_of_asc_node": 55.1782,
        "meta_arg_of_pericenter": 328.0054,
        "meta_mean_anomaly": 184.3533,
        "meta_ephemeris_type": 0,
        "meta_classification_type": "U",
        "meta_norad_cat_id": 34641,
        "meta_element_set_no": 999,
        "meta_rev_at_epoch": 88457,
        "meta_bstar": 0.00070823,
        "meta_mean_motion_dot": 2.845e-05,
        "meta_mean_motion_ddot": 0,
        "tle_line1": "1 34641U 93036XN  25360.62118360  .00002845  00000+0  70823-3 0  9993",
        "tle_line2": "2 34641  73.8391  55.1782 0019151 328.0054 184.3533 14.52089180884575"
      },
      "geometry": {
        "type": "Point",
        "coordinates": [
          -134.5956085064035,
          26.903239711984106
        ]
      }
    },
    {
      "type": "Feature",
      "properties": {
        "norad_id": 34642,
        "name": "COSMOS 2251 DEB",
        "group": "cosmos-2251-debris",
        "lat": -24.885938762252263,
        "lon": -53.08337127963798,
        "alt_km": 1039.9454773661555,
        "timestamp": "2025-12-27T07:26:25.615433+00:00",
        "meta_object_name": "COSMOS 2251 DEB",
        "meta_object_id": "1993-036XP",
        "meta_epoch": "2025-12-26T08:15:27.972000",
        "meta_mean_motion": 13.99010447,
        "meta_eccentricity": 0.020642,
        "meta_inclination": 74.0043,
        "meta_ra_of_asc_node": 316.2358,
        "meta_arg_of_pericenter": 132.8171,
        "meta_mean_anomaly": 19.2317,
        "meta_ephemeris_type": 0,
        "meta_classification_type": "U",
        "meta_norad_cat_id": 34642,
        "meta_element_set_no": 999,
        "meta_rev_at_epoch": 85483,
        "meta_bstar": 0.00085901,
        "meta_mean_motion_dot": 1.468e-05,
        "meta_mean_motion_ddot": 0,
        "tle_line1": "1 34642U 93036XP  25360.34407375  .00001468  00000+0  85901-3 0  9993",
        "tle_line2": "2 34642  74.0043 316.2358 0206420 132.8171  19.2317 13.99010447854833"
      },
      "geometry": {
        "type": "Point",
        "coordinates": [
          -53.08337127963798,
          -24.885938762252263
        ]
      }
    },
    {
      "type": "Feature",
      "properties": {
        "norad_id": 34671,
        "name": "COSMOS 2251 DEB",
        "group": "cosmos-2251-debris",
        "lat": -36.43587112153328,
        "lon": 93.95793234728946,
        "alt_km": 681.0800402425866,
        "timestamp": "2025-12-27T07:26:25.615443+00:00",
        "meta_object_name": "COSMOS 2251 DEB",
        "meta_object_id": "1993-036XR",
        "meta_epoch": "2025-12-26T17:34:24.223584",
        "meta_mean_motion": 14.67181745,
        "meta_eccentricity": 0.00103299,
        "meta_inclination": 74.0276,
        "meta_ra_of_asc_node": 107.28,
        "meta_arg_of_pericenter": 189.2893,
        "meta_mean_anomaly": 321.9941,
        "meta_ephemeris_type": 0,
        "meta_classification_type": "U",
        "meta_norad_cat_id": 34671,
        "meta_element_set_no": 999,
        "meta_rev_at_epoch": 88502,
        "meta_bstar": 0.0017995005,
        "meta_mean_motion_dot": 0.00010118,
        "meta_mean_motion_ddot": 0,
        "tle_line1": "1 34671U 93036XR  25360.73222481  .00010118  00000+0  17995-2 0  9990",
        "tle_line2": "2 34671  74.0276 107.2800 0010329 189.2893 321.9941 14.67181745885028"
      },
      "geometry": {
        "type": "Point",
        "coordinates": [
          93.95793234728946,
          -36.43587112153328
        ]
      }
    },
    {
      "type": "Feature",
      "properties": {
        "norad_id": 34672,
        "name": "COSMOS 2251 DEB",
        "group": "cosmos-2251-debris",
        "lat": -23.545810248205175,
        "lon": -88.3438912098947,
        "alt_km": 758.4319758654574,
        "timestamp": "2025-12-27T07:26:25.615454+00:00",
        "meta_object_name": "COSMOS 2251 DEB",
        "meta_object_id": "1993-036XS",
        "meta_epoch": "2025-12-23T01:39:52.431840",
        "meta_mean_motion": 14.36424251,
        "meta_eccentricity": 0.00243004,
        "meta_inclination": 74.0343,
        "meta_ra_of_asc_node": 286.6106,
        "meta_arg_of_pericenter": 356.389,
        "meta_mean_anomaly": 18.9966,
        "meta_ephemeris_type": 0,
        "meta_classification_type": "U",
        "meta_norad_cat_id": 34672,
        "meta_element_set_no": 999,
        "meta_rev_at_epoch": 65326,
        "meta_bstar": 0.00025150328,
        "meta_mean_motion_dot": 7.13e-06,
        "meta_mean_motion_ddot": 0,
        "tle_line1": "1 34672U 93036XS  25357.06935685  .00000713  00000+0  25150-3 0  9993",
        "tle_line2": "2 34672  74.0343 286.6106 0024300 356.3890  18.9966 14.36424251653260"
      },
      "geometry": {
        "type": "Point",
        "coordinates": [
          -88.3438912098947,
          -23.545810248205175
        ]
      }
    },
    {
      "type": "Feature",
      "properties": {
        "norad_id": 34678,
        "name": "COSMOS 2251 DEB",
        "group": "cosmos-2251-debris",
        "lat": -5.569721173383099,
        "lon": 160.80182202465667,
        "alt_km": 811.7348229841245,
        "timestamp": "2025-12-27T07:26:25.615464+00:00",
        "meta_object_name": "COSMOS 2251 DEB",
        "meta_object_id": "1993-036XY",
        "meta_epoch": "2025-12-27T00:07:27.774048",
        "meta_mean_motion": 14.30067635,
        "meta_eccentricity": 0.00248685,
        "meta_inclination": 74.0379,
        "meta_ra_of_asc_node": 339.7564,
        "meta_arg_of_pericenter": 24.5777,
        "meta_mean_anomaly": 32.2686,
        "meta_ephemeris_type": 0,
        "meta_classification_type": "U",
        "meta_norad_cat_id": 34678,
        "meta_element_set_no": 999,
        "meta_rev_at_epoch": 87583,
        "meta_bstar": 4.1803023e-05,
        "meta_mean_motion_dot": 8.3e-07,
        "meta_mean_motion_ddot": 0,
        "tle_line1": "1 34678U 93036XY  25361.00518257  .00000083  00000+0  41803-4 0  9994",
        "tle_line2": "2 34678  74.0379 339.7564 0024868  24.5777  32.2686 14.30067635875830"
      },
      "geometry": {
        "type": "Point",
        "coordinates": [
          160.80182202465667,
          -5.569721173383099
        ]
      }
    },
    {
      "type": "Feature",
      "properties": {
        "norad_id": 34680,
        "name": "COSMOS 2251 DEB",
        "group": "cosmos-2251-debris",
        "lat": -73.78525532797534,
        "lon": 22.346458534871264,
        "alt_km": 696.0600091480201,
        "timestamp": "2025-12-27T07:26:25.615474+00:00",
        "meta_object_name": "COSMOS 2251 DEB",
        "meta_object_id": "1993-036YA",
        "meta_epoch": "2025-12-26T15:42:39.280320",
        "meta_mean_motion": 14.60769199,
        "meta_eccentricity": 0.0006141,
        "meta_inclination": 74.0436,
        "meta_ra_of_asc_node": 103.2882,
        "meta_arg_of_pericenter": 205.4057,
        "meta_mean_anomaly": 222.2258,
        "meta_ephemeris_type": 0,
        "meta_classification_type": "U",
        "meta_norad_cat_id": 34680,
        "meta_element_set_no": 999,
        "meta_rev_at_epoch": 88531,
        "meta_bstar": 0.0011906,
        "meta_mean_motion_dot": 5.787e-05,
        "meta_mean_motion_ddot": 0,
        "tle_line1": "1 34680U 93036YA  25360.65462130  .00005787  00000+0  11906-2 0  9990",
        "tle_line2": "2 34680  74.0436 103.2882 0006141 205.4057 222.2258 14.60769199885316"
      },
      "geometry": {
        "type": "Point",
        "coordinates": [
          22.346458534871264,
          -73.78525532797534
        ]
      }
    },
    {
      "type": "Feature",
      "properties": {
        "norad_id": 34681,
        "name": "COSMOS 2251 DEB",
        "group": "cosmos-2251-debris",
        "lat": -64.28067938749868,
        "lon": 117.97883047560752,
        "alt_km": 617.842855060434,
        "timestamp": "2025-12-27T07:26:25.615484+00:00",
        "meta_object_name": "COSMOS 2251 DEB",
        "meta_object_id": "1993-036YB",
        "meta_epoch": "2025-12-26T19:17:32.518176",
        "meta_mean_motion": 14.83527031,
        "meta_eccentricity": 0.00256678,
        "meta_inclination": 74.0625,
        "meta_ra_of_asc_node": 262.5914,
        "meta_arg_of_pericenter": 317.1474,
        "meta_mean_anomaly": 110.4564,
        "meta_ephemeris_type": 0,
        "meta_classification_type": "U",
        "meta_norad_cat_id": 34681,
        "meta_element_set_no": 999,
        "meta_rev_at_epoch": 89479,
        "meta_bstar": 0.0012364188,
        "meta_mean_motion_dot": 0.00010217,
        "meta_mean_motion_ddot": 0,
        "tle_line1": "1 34681U 93036YB  25360.80384859  .00010217  00000+0  12364-2 0  9992",
        "tle_line2": "2 34681  74.0625 262.5914 0025667 317.1474 110.4564 14.83527031894792"
      },
      "geometry": {
        "type": "Point",
        "coordinates": [
          117.97883047560752,
          -64.28067938749868
        ]
      }
    }
  ]
}